LANDSAT 9               
1 49260U 21088A   24006.08123398  .00000473  00000+0  11496-3 0  9993
2 49260  98.2088  78.3095 0001065  92.6605 267.4716 14.57129707120942
